{"type": "FeatureCollection", "features": [ {"type": "Feature", "properties": {"norad_id": 43262, "name": "GAOFEN-1 04", "group": "resource", "lat": 8.230499623640647, "lon": -143.7002407850759, "alt_km": 642.8652175493162, "timestamp": "2025-12-03T06:58:42.898970+00:00", "meta": {"OBJECT_NAME": "GAOFEN-1 04", "OBJECT_ID": "2018-031D", "EPOCH": "2025-12-02T20:26:41.430624", "MEAN_MOTION": 14.76415623, "ECCENTRICITY": 0.0001368, "INCLINATION": 98.0822, "RA_OF_ASC_NODE": 34.6829, "ARG_OF_PERICENTER": 62.7477, "MEAN_ANOMALY": 297.3872, "EPHEMERIS_TYPE": 0, "CLASSIFICATION_TYPE": "U", "NORAD_CAT_ID": 43262, "ELEMENT_SET_NO": 999, "REV_AT_EPOCH": 41371, "BSTAR": 0.00020101, "MEAN_MOTION_DOT": 1.345e-05, "MEAN_MOTION_DDOT": 0}, "tle": {"line1": "1 43262U 18031D   25336.85186841  .00001345  00000+0  20101-3 0  9999", "line2": "2 43262  98.0822  34.6829 0001368  62.7477 297.3872 14.76415623413714"}}, "geometry": {"type": "Point", "coordinates": [-143.7002407850759, 8.230499623640647]}}, {"type": "Feature", "properties": {"norad_id": 43437, "name": "SENTINEL-3B", "group": "resource", "lat": -45.329114761879524, "lon": -146.2241422627577, "alt_km": 809.8070345562955, "timestamp": "2025-12-03T06:58:42.898981+00:00", "meta": {"OBJECT_NAME": "SENTINEL-3B", "OBJECT_ID": "2018-039A", "EPOCH": "2025-12-02T18:08:28.531392", "MEAN_MOTION": 14.26736446, "ECCENTRICITY": 0.0001467, "INCLINATION": 98.6281, "RA_OF_ASC_NODE": 42.0836, "ARG_OF_PERICENTER": 112.3309, "MEAN_ANOMALY": 247.8027, "EPHEMERIS_TYPE": 0, "CLASSIFICATION_TYPE": "U", "NORAD_CAT_ID": 43437, "ELEMENT_SET_NO": 999, "REV_AT_EPOCH": 39611, "BSTAR": 0.00010314, "MEAN_MOTION_DOT": 2.06e-06, "MEAN_MOTION_DDOT": 0}, "tle": {"line1": "1 43437U 18039A   25336.75588578  .00000206  00000+0  10314-3 0  9993", "line2": "2 43437  98.6281  42.0836 0001467 112.3309 247.8027 14.26736446396110"}}, "geometry": {"type": "Point", "coordinates": [-146.2241422627577, -45.329114761879524]}}, {"type": "Feature", "properties": {"norad_id": 43461, "name": "GAOFEN-5 01", "group": "resource", "lat": 27.94826800545276, "lon": 124.60712019429117, "alt_km": 691.5851078015039, "timestamp": "2025-12-03T06:58:42.898994+00:00", "meta": {"OBJECT_NAME": "GAOFEN-5 01", "OBJECT_ID": "2018-043A", "EPOCH": "2025-12-02T20:25:13.689696", "MEAN_MOTION": 14.60391187, "ECCENTRICITY": 0.0001605, "INCLINATION": 98.4311, "RA_OF_ASC_NODE": 299.6463, "ARG_OF_PERICENTER": 11.609, "MEAN_ANOMALY": 348.5146, "EPHEMERIS_TYPE": 0, "CLASSIFICATION_TYPE": "U", "NORAD_CAT_ID": 43461, "ELEMENT_SET_NO": 999, "REV_AT_EPOCH": 40303, "BSTAR": 0.00014932, "MEAN_MOTION_DOT": 6.74e-06, "MEAN_MOTION_DDOT": 0}, "tle": {"line1": "1 43461U 18043A   25336.85085289  .00000674  00000+0  14932-3 0  9996", "line2": "2 43461  98.4311 299.6463 0001605  11.6090 348.5146 14.60391187403035"}}, "geometry": {"type": "Point", "coordinates": [124.60712019429117, 27.94826800545276]}}, {"type": "Feature", "properties": {"norad_id": 43484, "name": "GAOFEN-6", "group": "resource", "lat": -40.80643665058417, "lon": 48.675347995895656, "alt_km": 653.1721330006458, "timestamp": "2025-12-03T06:58:42.899005+00:00", "meta": {"OBJECT_NAME": "GAOFEN-6", "OBJECT_ID": "2018-048A", "EPOCH": "2025-12-02T21:24:24.588000", "MEAN_MOTION": 14.76535446, "ECCENTRICITY": 0.0013323, "INCLINATION": 97.8045, "RA_OF_ASC_NODE": 41.4892, "ARG_OF_PERICENTER": 92.6791, "MEAN_ANOMALY": 267.5944, "EPHEMERIS_TYPE": 0, "CLASSIFICATION_TYPE": "U", "NORAD_CAT_ID": 43484, "ELEMENT_SET_NO": 999, "REV_AT_EPOCH": 40442, "BSTAR": 7.7292e-05, "MEAN_MOTION_DOT": 4.9e-06, "MEAN_MOTION_DDOT": 0}, "tle": {"line1": "1 43484U 18048A   25336.89195125  .00000490  00000+0  77292-4 0  9996", "line2": "2 43484  97.8045  41.4892 0013323  92.6791 267.5944 14.76535446404428"}}, "geometry": {"type": "Point", "coordinates": [48.675347995895656, -40.80643665058417]}}, {"type": "Feature", "properties": {"norad_id": 43585, "name": "GAOFEN-11 01", "group": "resource", "lat": -4.707548269907794, "lon": -140.28594589904014, "alt_km": 427.29848608147313, "timestamp": "2025-12-03T06:58:42.899021+00:00", "meta": {"OBJECT_NAME": "GAOFEN-11 01", "OBJECT_ID": "2018-063A", "EPOCH": "2025-12-02T20:52:48.793152", "MEAN_MOTION": 15.48794024, "ECCENTRICITY": 0.0005021, "INCLINATION": 97.1583, "RA_OF_ASC_NODE": 39.8899, "ARG_OF_PERICENTER": 355.967, "MEAN_ANOMALY": 4.154, "EPHEMERIS_TYPE": 0, "CLASSIFICATION_TYPE": "U", "NORAD_CAT_ID": 43585, "ELEMENT_SET_NO": 999, "REV_AT_EPOCH": 40989, "BSTAR": 0.00033655, "MEAN_MOTION_DOT": 0.00018014, "MEAN_MOTION_DDOT": 0}, "tle": {"line1": "1 43585U 18063A   25336.87000918  .00018014  00000+0  33655-3 0  9993", "line2": "2 43585  97.1583  39.8899 0005021 355.9670   4.1540 15.48794024409897"}}, "geometry": {"type": "Point", "coordinates": [-140.28594589904014, -4.707548269907794]}}, {"type": "Feature", "properties": {"norad_id": 43613, "name": "ICESAT-2", "group": "resource", "lat": -87.90364315782058, "lon": -15.008795030417557, "alt_km": 488.49834118747003, "timestamp": "2025-12-03T06:58:42.899032+00:00", "meta": {"OBJECT_NAME": "ICESAT-2", "OBJECT_ID": "2018-070A", "EPOCH": "2025-12-02T17:13:54.170112", "MEAN_MOTION": 15.28316823, "ECCENTRICITY": 6.66e-05, "INCLINATION": 92.0055, "RA_OF_ASC_NODE": 238.0319, "ARG_OF_PERICENTER": 151.2902, "MEAN_ANOMALY": 208.8384, "EPHEMERIS_TYPE": 0, "CLASSIFICATION_TYPE": "U", "NORAD_CAT_ID": 43613, "ELEMENT_SET_NO": 999, "REV_AT_EPOCH": 40245, "BSTAR": 0.00059854, "MEAN_MOTION_DOT": 0.00016514, "MEAN_MOTION_DDOT": 0}, "tle": {"line1": "1 43613U 18070A   25336.71798808  .00016514  00000+0  59854-3 0  9990", "line2": "2 43613  92.0055 238.0319 0000666 151.2902 208.8384 15.28316823402451"}}, "geometry": {"type": "Point", "coordinates": [-15.008795030417557, -87.90364315782058]}}, {"type": "Feature", "properties": {"norad_id": 43719, "name": "HYSIS", "group": "resource", "lat": -74.20089099951332, "lon": 70.16377643416926, "alt_km": 642.015252317462, "timestamp": "2025-12-03T06:58:42.899042+00:00", "meta": {"OBJECT_NAME": "HYSIS", "OBJECT_ID": "2018-096A", "EPOCH": "2025-12-02T19:57:15.894144", "MEAN_MOTION": 14.78597379, "ECCENTRICITY": 0.0001693, "INCLINATION": 98.0111, "RA_OF_ASC_NODE": 39.8572, "ARG_OF_PERICENTER": 67.9481, "MEAN_ANOMALY": 292.191, "EPHEMERIS_TYPE": 0, "CLASSIFICATION_TYPE": "U", "NORAD_CAT_ID": 43719, "ELEMENT_SET_NO": 999, "REV_AT_EPOCH": 37840, "BSTAR": 2.3022e-05, "MEAN_MOTION_DOT": 1.16e-06, "MEAN_MOTION_DDOT": 0}, "tle": {"line1": "1 43719U 18096A   25336.83143396  .00000116  00000+0  23022-4 0  9994", "line2": "2 43719  98.0111  39.8572 0001693  67.9481 292.1910 14.78597379378400"}}, "geometry": {"type": "Point", "coordinates": [70.16377643416926, -74.20089099951332]}}, {"type": "Feature", "properties": {"norad_id": 43783, "name": "KAZSTSAT", "group": "resource", "lat": 2.780699109555151, "lon": -166.75349197780378, "alt_km": 576.2810525764589, "timestamp": "2025-12-03T06:58:42.899053+00:00", "meta": {"OBJECT_NAME": "KAZSTSAT", "OBJECT_ID": "2018-099AB", "EPOCH": "2025-12-02T14:10:25.767264", "MEAN_MOTION": 14.99295651, "ECCENTRICITY": 0.00065816, "INCLINATION": 97.4552, "RA_OF_ASC_NODE": 12.212, "ARG_OF_PERICENTER": 7.2234, "MEAN_ANOMALY": 352.9084, "EPHEMERIS_TYPE": 0, "CLASSIFICATION_TYPE": "U", "NORAD_CAT_ID": 43783, "ELEMENT_SET_NO": 999, "REV_AT_EPOCH": 38184, "BSTAR": 0.0002208698, "MEAN_MOTION_DOT": 2.642e-05, "MEAN_MOTION_DDOT": 0}, "tle": {"line1": "1 43783U 18099AB  25336.59057601  .00002642  00000+0  22087-3 0  9999", "line2": "2 43783  97.4552  12.2120 0006581   7.2234 352.9084 14.99295651381841"}}, "geometry": {"type": "Point", "coordinates": [-166.75349197780378, 2.780699109555151]}}, {"type": "Feature", "properties": {"norad_id": 43831, "name": "SAUDISAT 5A", "group": "resource", "lat": 57.77782945929831, "lon": 25.86823623767638, "alt_km": 478.2821349142696, "timestamp": "2025-12-03T06:58:42.899065+00:00", "meta": {"OBJECT_NAME": "SAUDISAT 5A", "OBJECT_ID": "2018-102A", "EPOCH": "2025-12-02T21:16:37.900128", "MEAN_MOTION": 15.25460709, "ECCENTRICITY": 0.0011775, "INCLINATION": 97.3375, "RA_OF_ASC_NODE": 37.269, "ARG_OF_PERICENTER": 106.4526, "MEAN_ANOMALY": 253.8008, "EPHEMERIS_TYPE": 0, "CLASSIFICATION_TYPE": "U", "NORAD_CAT_ID": 43831, "ELEMENT_SET_NO": 999, "REV_AT_EPOCH": 38572, "BSTAR": 0.00032859, "MEAN_MOTION_DOT": 8.26e-05, "MEAN_MOTION_DDOT": 0}, "tle": {"line1": "1 43831U 18102A   25336.88654977  .00008260  00000+0  32859-3 0  9999", "line2": "2 43831  97.3375  37.2690 0011775 106.4526 253.8008 15.25460709385727"}}, "geometry": {"type": "Point", "coordinates": [25.86823623767638, 57.77782945929831]}}, {"type": "Feature", "properties": {"norad_id": 43833, "name": "SAUDISAT 5B", "group": "resource", "lat": 78.49879356605273, "lon": -100.25813128926173, "alt_km": 472.55691017448953, "timestamp": "2025-12-03T06:58:42.899076+00:00", "meta": {"OBJECT_NAME": "SAUDISAT 5B", "OBJECT_ID": "2018-102C", "EPOCH": "2025-12-02T21:06:13.780224", "MEAN_MOTION": 15.25818746, "ECCENTRICITY": 0.0012439, "INCLINATION": 97.347, "RA_OF_ASC_NODE": 39.9828, "ARG_OF_PERICENTER": 109.0409, "MEAN_ANOMALY": 251.2178, "EPHEMERIS_TYPE": 0, "CLASSIFICATION_TYPE": "U", "NORAD_CAT_ID": 43833, "ELEMENT_SET_NO": 999, "REV_AT_EPOCH": 38583, "BSTAR": 0.00033116, "MEAN_MOTION_DOT": 8.417e-05, "MEAN_MOTION_DDOT": 0}, "tle": {"line1": "1 43833U 18102C   25336.87932616  .00008417  00000+0  33116-3 0  9990", "line2": "2 43833  97.3470  39.9828 0012439 109.0409 251.2178 15.25818746385834"}}, "geometry": {"type": "Point", "coordinates": [-100.25813128926173, 78.49879356605273]}}]}